CCSDS_OMM_VERS = 2.0
CREATION_DATE  = 
ORIGINATOR     = 

OBJECT_NAME    = UNKNOWN
OBJECT_ID      = 
CENTER_NAME    = EARTH
REF_FRAME      = TEME
TIME_SYSTEM    = UTC
MEAN_ELEMENT_THEORY = SGP/SGP4

EPOCH          = 2026-01-18T09:16:47.084448
MEAN_MOTION    = 13.19528041
ECCENTRICITY   = .0119561
INCLINATION    = 100.7424
RA_OF_ASC_NODE = 220.3480
ARG_OF_PERICENTER = 279.3366
MEAN_ANOMALY   = 79.4245

EPHEMERIS_TYPE = 0
CLASSIFICATION_TYPE = U
NORAD_CAT_ID   = 87771
ELEMENT_SET_NO = 999
REV_AT_EPOCH   = 53992
BSTAR          = .28294E-3
MEAN_MOTION_DOT = .69E-6
MEAN_MOTION_DDOT = 0

CCSDS_OMM_VERS = 2.0
CREATION_DATE  = 
ORIGINATOR     = 

OBJECT_NAME    = UNKNOWN
OBJECT_ID      = 
CENTER_NAME    = EARTH
REF_FRAME      = TEME
TIME_SYSTEM    = UTC
MEAN_ELEMENT_THEORY = SGP/SGP4

EPOCH          = 2026-01-17T09:12:10.840320
MEAN_MOTION    = 13.00588215
ECCENTRICITY   = .0028053
INCLINATION    = 102.3501
RA_OF_ASC_NODE = 258.6954
ARG_OF_PERICENTER = 156.7435
MEAN_ANOMALY   = 203.4937

EPHEMERIS_TYPE = 0
CLASSIFICATION_TYPE = U
NORAD_CAT_ID   = 87782
ELEMENT_SET_NO = 999
REV_AT_EPOCH   = 57262
BSTAR          = .74836E-2
MEAN_MOTION_DOT = .2221E-4
MEAN_MOTION_DDOT = 0

CCSDS_OMM_VERS = 2.0
CREATION_DATE  = 
ORIGINATOR     = 

OBJECT_NAME    = UNKNOWN
OBJECT_ID      = 
CENTER_NAME    = EARTH
REF_FRAME      = TEME
TIME_SYSTEM    = UTC
MEAN_ELEMENT_THEORY = SGP/SGP4

EPOCH          = 2026-01-17T13:18:15.077088
MEAN_MOTION    = 13.16710998
ECCENTRICITY   = .0239483
INCLINATION    = 99.6612
RA_OF_ASC_NODE = 133.6907
ARG_OF_PERICENTER = 279.1280
MEAN_ANOMALY   = 78.2814

EPHEMERIS_TYPE = 0
CLASSIFICATION_TYPE = U
NORAD_CAT_ID   = 87843
ELEMENT_SET_NO = 999
REV_AT_EPOCH   = 56887
BSTAR          = .50445E-2
MEAN_MOTION_DOT = .2198E-4
MEAN_MOTION_DDOT = 0

CCSDS_OMM_VERS = 2.0
CREATION_DATE  = 
ORIGINATOR     = 

OBJECT_NAME    = UNKNOWN
OBJECT_ID      = 
CENTER_NAME    = EARTH
REF_FRAME      = TEME
TIME_SYSTEM    = UTC
MEAN_ELEMENT_THEORY = SGP/SGP4

EPOCH          = 2026-01-19T15:28:34.655520
MEAN_MOTION    = 12.89015426
ECCENTRICITY   = .0576498
INCLINATION    = 98.8627
RA_OF_ASC_NODE = 334.7183
ARG_OF_PERICENTER = 166.2889
MEAN_ANOMALY   = 195.4648

EPHEMERIS_TYPE = 0
CLASSIFICATION_TYPE = U
NORAD_CAT_ID   = 87845
ELEMENT_SET_NO = 999
REV_AT_EPOCH   = 57009
BSTAR          = .28395E-2
MEAN_MOTION_DOT = .1498E-4
MEAN_MOTION_DDOT = 0

CCSDS_OMM_VERS = 2.0
CREATION_DATE  = 
ORIGINATOR     = 

OBJECT_NAME    = UNKNOWN
OBJECT_ID      = 
CENTER_NAME    = EARTH
REF_FRAME      = TEME
TIME_SYSTEM    = UTC
MEAN_ELEMENT_THEORY = SGP/SGP4

EPOCH          = 2026-01-17T14:35:37.050144
MEAN_MOTION    = 14.41032898
ECCENTRICITY   = .0036336
INCLINATION    = 99.1573
RA_OF_ASC_NODE = 144.6238
ARG_OF_PERICENTER = 161.3121
MEAN_ANOMALY   = 198.9409

EPHEMERIS_TYPE = 0
CLASSIFICATION_TYPE = U
NORAD_CAT_ID   = 87878
ELEMENT_SET_NO = 999
REV_AT_EPOCH   = 61646
BSTAR          = .99638E-3
MEAN_MOTION_DOT = .3181E-4
MEAN_MOTION_DDOT = 0

CCSDS_OMM_VERS = 2.0
CREATION_DATE  = 
ORIGINATOR     = 

OBJECT_NAME    = UNKNOWN
OBJECT_ID      = 
CENTER_NAME    = EARTH
REF_FRAME      = TEME
TIME_SYSTEM    = UTC
MEAN_ELEMENT_THEORY = SGP/SGP4

EPOCH          = 2026-01-19T13:50:01.303008
MEAN_MOTION    = 14.06008870
ECCENTRICITY   = .015316
INCLINATION    = 98.7330
RA_OF_ASC_NODE = 127.0964
ARG_OF_PERICENTER = 322.0647
MEAN_ANOMALY   = 36.9809

EPHEMERIS_TYPE = 0
CLASSIFICATION_TYPE = U
NORAD_CAT_ID   = 87884
ELEMENT_SET_NO = 999
REV_AT_EPOCH   = 62368
BSTAR          = .21925E-3
MEAN_MOTION_DOT = .356E-5
MEAN_MOTION_DDOT = 0

CCSDS_OMM_VERS = 2.0
CREATION_DATE  = 
ORIGINATOR     = 

OBJECT_NAME    = UNKNOWN
OBJECT_ID      = 
CENTER_NAME    = EARTH
REF_FRAME      = TEME
TIME_SYSTEM    = UTC
MEAN_ELEMENT_THEORY = SGP/SGP4

EPOCH          = 2026-01-06T16:38:31.690176
MEAN_MOTION    = 12.35225332
ECCENTRICITY   = .0885792
INCLINATION    = 28.6304
RA_OF_ASC_NODE = 155.2866
ARG_OF_PERICENTER = 209.1286
MEAN_ANOMALY   = 145.6890

EPHEMERIS_TYPE = 0
CLASSIFICATION_TYPE = U
NORAD_CAT_ID   = 87991
ELEMENT_SET_NO = 999
REV_AT_EPOCH   = 52608
BSTAR          = .5158E-2
MEAN_MOTION_DOT = .2603E-4
MEAN_MOTION_DDOT = 0

CCSDS_OMM_VERS = 2.0
CREATION_DATE  = 
ORIGINATOR     = 

OBJECT_NAME    = UNKNOWN
OBJECT_ID      = 
CENTER_NAME    = EARTH
REF_FRAME      = TEME
TIME_SYSTEM    = UTC
MEAN_ELEMENT_THEORY = SGP/SGP4

EPOCH          = 2025-12-27T07:00:25.997184
MEAN_MOTION    = 14.11712008
ECCENTRICITY   = .0026225
INCLINATION    = 98.5977
RA_OF_ASC_NODE = 6.3824
ARG_OF_PERICENTER = 201.8740
MEAN_ANOMALY   = 158.1315

EPHEMERIS_TYPE = 0
CLASSIFICATION_TYPE = U
NORAD_CAT_ID   = 87998
ELEMENT_SET_NO = 999
REV_AT_EPOCH   = 55095
BSTAR          = .57494E-3
MEAN_MOTION_DOT = .1008E-4
MEAN_MOTION_DDOT = 0

CCSDS_OMM_VERS = 2.0
CREATION_DATE  = 
ORIGINATOR     = 

OBJECT_NAME    = UNKNOWN
OBJECT_ID      = 
CENTER_NAME    = EARTH
REF_FRAME      = TEME
TIME_SYSTEM    = UTC
MEAN_ELEMENT_THEORY = SGP/SGP4

EPOCH          = 2026-01-19T06:09:35.651232
MEAN_MOTION    = 14.45778462
ECCENTRICITY   = .0190136
INCLINATION    = 97.8384
RA_OF_ASC_NODE = 210.5921
ARG_OF_PERICENTER = 276.1875
MEAN_ANOMALY   = 81.7689

EPHEMERIS_TYPE = 0
CLASSIFICATION_TYPE = U
NORAD_CAT_ID   = 89005
ELEMENT_SET_NO = 999
REV_AT_EPOCH   = 53951
BSTAR          = .77202E-3
MEAN_MOTION_DOT = .3376E-4
MEAN_MOTION_DDOT = 0

CCSDS_OMM_VERS = 2.0
CREATION_DATE  = 
ORIGINATOR     = 

OBJECT_NAME    = UNKNOWN
OBJECT_ID      = 
CENTER_NAME    = EARTH
REF_FRAME      = TEME
TIME_SYSTEM    = UTC
MEAN_ELEMENT_THEORY = SGP/SGP4

EPOCH          = 2026-01-18T23:47:15.637344
MEAN_MOTION    = 14.94900125
ECCENTRICITY   = .0021637
INCLINATION    = 98.0489
RA_OF_ASC_NODE = 284.1919
ARG_OF_PERICENTER = 198.6826
MEAN_ANOMALY   = 161.3602

EPHEMERIS_TYPE = 0
CLASSIFICATION_TYPE = U
NORAD_CAT_ID   = 89029
ELEMENT_SET_NO = 999
REV_AT_EPOCH   = 65664
BSTAR          = .50597E-3
MEAN_MOTION_DOT = .5483E-4
MEAN_MOTION_DDOT = 0

CCSDS_OMM_VERS = 2.0
CREATION_DATE  = 
ORIGINATOR     = 

OBJECT_NAME    = UNKNOWN
OBJECT_ID      = 
CENTER_NAME    = EARTH
REF_FRAME      = TEME
TIME_SYSTEM    = UTC
MEAN_ELEMENT_THEORY = SGP/SGP4

EPOCH          = 2026-01-17T14:51:12.881376
MEAN_MOTION    = 13.04018734
ECCENTRICITY   = .0147999
INCLINATION    = 100.4673
RA_OF_ASC_NODE = 318.1881
ARG_OF_PERICENTER = 28.0227
MEAN_ANOMALY   = 332.8750

EPHEMERIS_TYPE = 0
CLASSIFICATION_TYPE = U
NORAD_CAT_ID   = 89101
ELEMENT_SET_NO = 999
REV_AT_EPOCH   = 55952
BSTAR          = -.78501E-3
MEAN_MOTION_DOT = -.307E-5
MEAN_MOTION_DDOT = 0

CCSDS_OMM_VERS = 2.0
CREATION_DATE  = 
ORIGINATOR     = 

OBJECT_NAME    = UNKNOWN
OBJECT_ID      = 
CENTER_NAME    = EARTH
REF_FRAME      = TEME
TIME_SYSTEM    = UTC
MEAN_ELEMENT_THEORY = SGP/SGP4

EPOCH          = 2026-01-18T23:10:11.156160
MEAN_MOTION    = 8.87101834
ECCENTRICITY   = .2934192
INCLINATION    = 63.4340
RA_OF_ASC_NODE = 7.1754
ARG_OF_PERICENTER = 319.6098
MEAN_ANOMALY   = 21.9608

EPHEMERIS_TYPE = 0
CLASSIFICATION_TYPE = U
NORAD_CAT_ID   = 89132
ELEMENT_SET_NO = 999
REV_AT_EPOCH   = 32841
BSTAR          = .11107E-1
MEAN_MOTION_DOT = .8624E-4
MEAN_MOTION_DDOT = 0

