UNKNOWN                 
1 87771U          26018.38665607  .00000069  00000+0  28294-3 0  9990
2 87771 100.7424 220.3480 0119561 279.3366  79.4245 13.19528041539921
UNKNOWN                 
1 87782U          26017.38345880  .00002221  00000+0  74836-2 0  9993
2 87782 102.3501 258.6954 0028053 156.7435 203.4937 13.00588215572627
UNKNOWN                 
1 87843U          26017.55434117  .00002198  00000+0  50445-2 0  9995
2 87843  99.6612 133.6907 0239483 279.1280  78.2814 13.16710998568871
UNKNOWN                 
1 87845U          26019.64484555  .00001498  00000+0  28395-2 0  9991
2 87845  98.8627 334.7183 0576498 166.2889 195.4648 12.89015426570098
UNKNOWN                 
1 87878U          26017.60806771  .00003181  00000+0  99638-3 0  9999
2 87878  99.1573 144.6238 0036336 161.3121 198.9409 14.41032898616461
UNKNOWN                 
1 87884U          26019.57640397  .00000356  00000+0  21925-3 0  9999
2 87884  98.7330 127.0964 0153160 322.0647  36.9809 14.06008870623680
UNKNOWN                 
1 87991U          26006.69342234  .00002603  00000+0  51580-2 0  9992
2 87991  28.6304 155.2866 0885792 209.1286 145.6890 12.35225332526081
UNKNOWN                 
1 87998U          25361.29196756  .00001008  00000+0  57494-3 0  9993
2 87998  98.5977   6.3824 0026225 201.8740 158.1315 14.11712008550953
UNKNOWN                 
1 89005U          26019.25666263  .00003376  00000+0  77202-3 0  9995
2 89005  97.8384 210.5921 0190136 276.1875  81.7689 14.45778462539519
UNKNOWN                 
1 89029U          26018.99115321  .00005483  00000+0  50597-3 0  9994
2 89029  98.0489 284.1919 0021637 198.6826 161.3602 14.94900125656642
UNKNOWN                 
1 89101U          26017.61889909 -.00000307  00000+0 -78501-3 0  9990
2 89101 100.4673 318.1881 0147999  28.0227 332.8750 13.04018734559527
UNKNOWN                 
1 89132U          26018.96540690  .00008624  00000+0  11107-1 0  9999
2 89132  63.4340   7.1754 2934192 319.6098  21.9608  8.87101834328419
